CCSDS_OMM_VERS = 2.0
CREATION_DATE  = 
ORIGINATOR     = 

OBJECT_NAME    = COSMOS 2550
OBJECT_ID      = 2021-056A
CENTER_NAME    = EARTH
REF_FRAME      = TEME
TIME_SYSTEM    = UTC
MEAN_ELEMENT_THEORY = SGP/SGP4

EPOCH          = 2025-11-19T04:27:56.708064
MEAN_MOTION    = 15.33821396
ECCENTRICITY   = .0007903
INCLINATION    = 67.1437
RA_OF_ASC_NODE = 15.1780
ARG_OF_PERICENTER = 267.3654
MEAN_ANOMALY   = 92.6596

EPHEMERIS_TYPE = 0
CLASSIFICATION_TYPE = U
NORAD_CAT_ID   = 48865
ELEMENT_SET_NO = 999
REV_AT_EPOCH   = 24651
BSTAR          = .15446E-4
MEAN_MOTION_DOT = .316E-5
MEAN_MOTION_DDOT = 0

CCSDS_OMM_VERS = 2.0
CREATION_DATE  = 
ORIGINATOR     = 

OBJECT_NAME    = CZ-2C R/B
OBJECT_ID      = 2022-058K
CENTER_NAME    = EARTH
REF_FRAME      = TEME
TIME_SYSTEM    = UTC
MEAN_ELEMENT_THEORY = SGP/SGP4

EPOCH          = 2025-11-18T20:29:00.440448
MEAN_MOTION    = 15.46863093
ECCENTRICITY   = .00481029
INCLINATION    = 50.1884
RA_OF_ASC_NODE = 165.2125
ARG_OF_PERICENTER = 99.6193
MEAN_ANOMALY   = 261.0213

EPHEMERIS_TYPE = 0
CLASSIFICATION_TYPE = U
NORAD_CAT_ID   = 52794
ELEMENT_SET_NO = 999
REV_AT_EPOCH   = 19293
BSTAR          = .51343236E-3
MEAN_MOTION_DOT = .27128E-3
MEAN_MOTION_DDOT = 0

CCSDS_OMM_VERS = 2.0
CREATION_DATE  = 
ORIGINATOR     = 

OBJECT_NAME    = CZ-2C R/B
OBJECT_ID      = 2022-132E
CENTER_NAME    = EARTH
REF_FRAME      = TEME
TIME_SYSTEM    = UTC
MEAN_ELEMENT_THEORY = SGP/SGP4

EPOCH          = 2025-11-18T23:18:36.664416
MEAN_MOTION    = 15.52958508
ECCENTRICITY   = .00233311
INCLINATION    = 97.2946
RA_OF_ASC_NODE = 318.7519
ARG_OF_PERICENTER = 135.4248
MEAN_ANOMALY   = 224.8887

EPHEMERIS_TYPE = 0
CLASSIFICATION_TYPE = U
NORAD_CAT_ID   = 54039
ELEMENT_SET_NO = 999
REV_AT_EPOCH   = 17314
BSTAR          = .45502564E-3
MEAN_MOTION_DOT = .2862E-3
MEAN_MOTION_DDOT = 0

CCSDS_OMM_VERS = 2.0
CREATION_DATE  = 
ORIGINATOR     = 

OBJECT_NAME    = GSLV R/B
OBJECT_ID      = 2022-138AN
CENTER_NAME    = EARTH
REF_FRAME      = TEME
TIME_SYSTEM    = UTC
MEAN_ELEMENT_THEORY = SGP/SGP4

EPOCH          = 2025-11-18T21:49:58.579392
MEAN_MOTION    = 14.95958692
ECCENTRICITY   = .00210607
INCLINATION    = 87.3853
RA_OF_ASC_NODE = 203.4504
ARG_OF_PERICENTER = 187.4007
MEAN_ANOMALY   = 172.6917

EPHEMERIS_TYPE = 0
CLASSIFICATION_TYPE = U
NORAD_CAT_ID   = 54149
ELEMENT_SET_NO = 999
REV_AT_EPOCH   = 16736
BSTAR          = .23377208E-3
MEAN_MOTION_DOT = .2657E-4
MEAN_MOTION_DDOT = 0

CCSDS_OMM_VERS = 2.0
CREATION_DATE  = 
ORIGINATOR     = 

OBJECT_NAME    = XRISM
OBJECT_ID      = 2023-137A
CENTER_NAME    = EARTH
REF_FRAME      = TEME
TIME_SYSTEM    = UTC
MEAN_ELEMENT_THEORY = SGP/SGP4

EPOCH          = 2025-11-18T21:47:13.396416
MEAN_MOTION    = 15.10014072
ECCENTRICITY   = .00078369
INCLINATION    = 31.0029
RA_OF_ASC_NODE = 279.3759
ARG_OF_PERICENTER = 2.2440
MEAN_ANOMALY   = 357.8232

EPHEMERIS_TYPE = 0
CLASSIFICATION_TYPE = U
NORAD_CAT_ID   = 57800
ELEMENT_SET_NO = 999
REV_AT_EPOCH   = 12102
BSTAR          = .40327455E-3
MEAN_MOTION_DOT = .6817E-4
MEAN_MOTION_DDOT = 0

CCSDS_OMM_VERS = 2.0
CREATION_DATE  = 
ORIGINATOR     = 

OBJECT_NAME    = ACS3
OBJECT_ID      = 2024-077B
CENTER_NAME    = EARTH
REF_FRAME      = TEME
TIME_SYSTEM    = UTC
MEAN_ELEMENT_THEORY = SGP/SGP4

EPOCH          = 2025-11-18T14:51:18.792000
MEAN_MOTION    = 13.84024721
ECCENTRICITY   = .00645825
INCLINATION    = 97.3004
RA_OF_ASC_NODE = 283.5889
ARG_OF_PERICENTER = 19.7226
MEAN_ANOMALY   = 340.6411

EPHEMERIS_TYPE = 0
CLASSIFICATION_TYPE = U
NORAD_CAT_ID   = 59588
ELEMENT_SET_NO = 999
REV_AT_EPOCH   = 7880
BSTAR          = .43274394E-1
MEAN_MOTION_DOT = .4917E-3
MEAN_MOTION_DDOT = 0

