COSMOS 2550             
1 48865U 21056A   25323.18607301  .00000316  00000+0  15446-4 0  9999
2 48865  67.1437  15.1780 0007903 267.3654  92.6596 15.33821396246511
CZ-2C R/B               
1 52794U 22058K   25322.85347732  .00027128  00000+0  51343-3 0  9995
2 52794  50.1884 165.2125 0048102  99.6193 261.0213 15.46863093192933
CZ-2C R/B               
1 54039U 22132E   25322.97125769  .00028620  00000+0  45503-3 0  9998
2 54039  97.2946 318.7519 0023331 135.4248 224.8887 15.52958508173146
GSLV R/B                
1 54149U 22138AN  25322.90970578  .00002657  00000+0  23377-3 0  9992
2 54149  87.3853 203.4504 0021060 187.4007 172.6917 14.95958692167367
XRISM                   
1 57800U 23137A   25322.90779394  .00006817  00000+0  40327-3 0  9998
2 57800  31.0029 279.3759 0007836   2.2440 357.8232 15.10014072121022
ACS3                    
1 59588U 24077B   25322.61896750  .00049170  00000+0  43274-1 0  9992
2 59588  97.3004 283.5889 0064582  19.7226 340.6411 13.84024721 78809
